2025-274B               
1 66651U 25274B   25358.08683132  .00004327  00000+0  43321-3 0  9999
2 66651  97.7402 285.0699 0011252 207.9905 152.0710 14.91875807  4096
2025-274C               
1 66652U 25274C   25357.61520229  .00003426  00000+0  34347-3 0  9992
2 66652  97.7406 284.6132 0010769 216.5181 143.5304 14.91960147  4021
2025-274D               
1 66653U 25274D   25357.74926158  .00002690  00000+0  27090-3 0  9997
2 66653  97.7405 284.7445 0011752 212.5303 147.5192 14.91954613  4046
JACK E                  
1 66654U 25274E   25357.61200806  .00003001  00000+0  30020-3 0  9993
2 66654  97.7407 284.6177 0012281 214.8879 145.1536 14.92137123  4025
2025-274F               
1 66655U 25274F   25357.75245963  .00000154  00000+0  21040-4 0  9991
2 66655  97.7344 284.7333 0004467 345.6891  14.4200 14.91192024  4043
2025-274G               
1 66656U 25274G   25357.54156603  .00003191  00000+0  31723-3 0  9993
2 66656  97.7403 284.5555 0012858 217.0051 143.0282 14.92332980  4011
SPIRONE                 
1 66657U 25274H   25357.33721611  .00002999  00000+0  29728-3 0  9995
2 66657  97.7400 284.3612 0010908 235.5938 124.4251 14.92510020  3981
2025-274J               
1 66658U 25274J   25358.07151771  .00004023  00000+0  39501-3 0  9992
2 66658  97.7401 285.0907 0011473 236.2602 123.7524 14.92689214  4092
JACK K                  
1 66659U 25274K   25358.06812485  .00002913  00000+0  28624-3 0  9998
2 66659  97.7399 285.0957 0012161 237.9041 122.0998 14.92867663  4097
K-HERO                  
1 66660U 25274L   25358.06537017  .00002953  00000+0  28901-3 0  9997
2 66660  97.7406 285.1005 0012776 238.7636 121.2332 14.93019085  4095
SNUGLITE-III            
1 66661U 25274M   25358.06274231  .00002534  00000+0  24793-3 0  9994
2 66661  97.7403 285.1030 0013420 240.3091 119.6793 14.93151637  4094
2025-274N               
1 66662U 25274N   25358.06170269  .00002654  00000+0  25902-3 0  9997
2 66662  97.7404 285.1048 0013856 240.0154 119.9691 14.93207397  4090
