CCSDS_OMM_VERS = 2.0
CREATION_DATE  = 
ORIGINATOR     = 

OBJECT_NAME    = 2025-274B
OBJECT_ID      = 2025-274B
CENTER_NAME    = EARTH
REF_FRAME      = TEME
TIME_SYSTEM    = UTC
MEAN_ELEMENT_THEORY = SGP/SGP4

EPOCH          = 2025-12-24T02:05:02.226048
MEAN_MOTION    = 14.91875807
ECCENTRICITY   = .0011252
INCLINATION    = 97.7402
RA_OF_ASC_NODE = 285.0699
ARG_OF_PERICENTER = 207.9905
MEAN_ANOMALY   = 152.0710

EPHEMERIS_TYPE = 0
CLASSIFICATION_TYPE = U
NORAD_CAT_ID   = 66651
ELEMENT_SET_NO = 999
REV_AT_EPOCH   = 409
BSTAR          = .43321E-3
MEAN_MOTION_DOT = .4327E-4
MEAN_MOTION_DDOT = 0

CCSDS_OMM_VERS = 2.0
CREATION_DATE  = 
ORIGINATOR     = 

OBJECT_NAME    = 2025-274C
OBJECT_ID      = 2025-274C
CENTER_NAME    = EARTH
REF_FRAME      = TEME
TIME_SYSTEM    = UTC
MEAN_ELEMENT_THEORY = SGP/SGP4

EPOCH          = 2025-12-23T14:45:53.477856
MEAN_MOTION    = 14.91960147
ECCENTRICITY   = .00107697
INCLINATION    = 97.7406
RA_OF_ASC_NODE = 284.6132
ARG_OF_PERICENTER = 216.5181
MEAN_ANOMALY   = 143.5304

EPHEMERIS_TYPE = 0
CLASSIFICATION_TYPE = U
NORAD_CAT_ID   = 66652
ELEMENT_SET_NO = 999
REV_AT_EPOCH   = 402
BSTAR          = .34346641E-3
MEAN_MOTION_DOT = .3426E-4
MEAN_MOTION_DDOT = 0

CCSDS_OMM_VERS = 2.0
CREATION_DATE  = 
ORIGINATOR     = 

OBJECT_NAME    = 2025-274D
OBJECT_ID      = 2025-274D
CENTER_NAME    = EARTH
REF_FRAME      = TEME
TIME_SYSTEM    = UTC
MEAN_ELEMENT_THEORY = SGP/SGP4

EPOCH          = 2025-12-23T17:58:56.200512
MEAN_MOTION    = 14.91954613
ECCENTRICITY   = .00117522
INCLINATION    = 97.7405
RA_OF_ASC_NODE = 284.7445
ARG_OF_PERICENTER = 212.5303
MEAN_ANOMALY   = 147.5192

EPHEMERIS_TYPE = 0
CLASSIFICATION_TYPE = U
NORAD_CAT_ID   = 66653
ELEMENT_SET_NO = 999
REV_AT_EPOCH   = 404
BSTAR          = .27090221E-3
MEAN_MOTION_DOT = .269E-4
MEAN_MOTION_DDOT = 0

CCSDS_OMM_VERS = 2.0
CREATION_DATE  = 
ORIGINATOR     = 

OBJECT_NAME    = JACK E
OBJECT_ID      = 2025-274E
CENTER_NAME    = EARTH
REF_FRAME      = TEME
TIME_SYSTEM    = UTC
MEAN_ELEMENT_THEORY = SGP/SGP4

EPOCH          = 2025-12-23T14:41:17.496384
MEAN_MOTION    = 14.92137123
ECCENTRICITY   = .00122814
INCLINATION    = 97.7407
RA_OF_ASC_NODE = 284.6177
ARG_OF_PERICENTER = 214.8879
MEAN_ANOMALY   = 145.1536

EPHEMERIS_TYPE = 0
CLASSIFICATION_TYPE = U
NORAD_CAT_ID   = 66654
ELEMENT_SET_NO = 999
REV_AT_EPOCH   = 402
BSTAR          = .30019774E-3
MEAN_MOTION_DOT = .3001E-4
MEAN_MOTION_DDOT = 0

CCSDS_OMM_VERS = 2.0
CREATION_DATE  = 
ORIGINATOR     = 

OBJECT_NAME    = 2025-274F
OBJECT_ID      = 2025-274F
CENTER_NAME    = EARTH
REF_FRAME      = TEME
TIME_SYSTEM    = UTC
MEAN_ELEMENT_THEORY = SGP/SGP4

EPOCH          = 2025-12-23T18:03:32.512032
MEAN_MOTION    = 14.91192024
ECCENTRICITY   = .0004467
INCLINATION    = 97.7344
RA_OF_ASC_NODE = 284.7333
ARG_OF_PERICENTER = 345.6891
MEAN_ANOMALY   = 14.4200

EPHEMERIS_TYPE = 0
CLASSIFICATION_TYPE = U
NORAD_CAT_ID   = 66655
ELEMENT_SET_NO = 999
REV_AT_EPOCH   = 404
BSTAR          = .2104E-4
MEAN_MOTION_DOT = .154E-5
MEAN_MOTION_DDOT = 0

CCSDS_OMM_VERS = 2.0
CREATION_DATE  = 
ORIGINATOR     = 

OBJECT_NAME    = 2025-274G
OBJECT_ID      = 2025-274G
CENTER_NAME    = EARTH
REF_FRAME      = TEME
TIME_SYSTEM    = UTC
MEAN_ELEMENT_THEORY = SGP/SGP4

EPOCH          = 2025-12-23T12:59:51.304992
MEAN_MOTION    = 14.92332980
ECCENTRICITY   = .00128585
INCLINATION    = 97.7403
RA_OF_ASC_NODE = 284.5555
ARG_OF_PERICENTER = 217.0051
MEAN_ANOMALY   = 143.0282

EPHEMERIS_TYPE = 0
CLASSIFICATION_TYPE = U
NORAD_CAT_ID   = 66656
ELEMENT_SET_NO = 999
REV_AT_EPOCH   = 401
BSTAR          = .31722923E-3
MEAN_MOTION_DOT = .3191E-4
MEAN_MOTION_DDOT = 0

CCSDS_OMM_VERS = 2.0
CREATION_DATE  = 
ORIGINATOR     = 

OBJECT_NAME    = SPIRONE
OBJECT_ID      = 2025-274H
CENTER_NAME    = EARTH
REF_FRAME      = TEME
TIME_SYSTEM    = UTC
MEAN_ELEMENT_THEORY = SGP/SGP4

EPOCH          = 2025-12-23T08:05:35.471904
MEAN_MOTION    = 14.92510020
ECCENTRICITY   = .00109083
INCLINATION    = 97.7400
RA_OF_ASC_NODE = 284.3612
ARG_OF_PERICENTER = 235.5938
MEAN_ANOMALY   = 124.4251

EPHEMERIS_TYPE = 0
CLASSIFICATION_TYPE = U
NORAD_CAT_ID   = 66657
ELEMENT_SET_NO = 999
REV_AT_EPOCH   = 398
BSTAR          = .29728436E-3
MEAN_MOTION_DOT = .2999E-4
MEAN_MOTION_DDOT = 0

CCSDS_OMM_VERS = 2.0
CREATION_DATE  = 
ORIGINATOR     = 

OBJECT_NAME    = 2025-274J
OBJECT_ID      = 2025-274J
CENTER_NAME    = EARTH
REF_FRAME      = TEME
TIME_SYSTEM    = UTC
MEAN_ELEMENT_THEORY = SGP/SGP4

EPOCH          = 2025-12-24T01:42:59.130144
MEAN_MOTION    = 14.92689214
ECCENTRICITY   = .0011473
INCLINATION    = 97.7401
RA_OF_ASC_NODE = 285.0907
ARG_OF_PERICENTER = 236.2602
MEAN_ANOMALY   = 123.7524

EPHEMERIS_TYPE = 0
CLASSIFICATION_TYPE = U
NORAD_CAT_ID   = 66658
ELEMENT_SET_NO = 999
REV_AT_EPOCH   = 409
BSTAR          = .39501E-3
MEAN_MOTION_DOT = .4023E-4
MEAN_MOTION_DDOT = 0

CCSDS_OMM_VERS = 2.0
CREATION_DATE  = 
ORIGINATOR     = 

OBJECT_NAME    = JACK K
OBJECT_ID      = 2025-274K
CENTER_NAME    = EARTH
REF_FRAME      = TEME
TIME_SYSTEM    = UTC
MEAN_ELEMENT_THEORY = SGP/SGP4

EPOCH          = 2025-12-24T01:38:05.987040
MEAN_MOTION    = 14.92867663
ECCENTRICITY   = .0012161
INCLINATION    = 97.7399
RA_OF_ASC_NODE = 285.0957
ARG_OF_PERICENTER = 237.9041
MEAN_ANOMALY   = 122.0998

EPHEMERIS_TYPE = 0
CLASSIFICATION_TYPE = U
NORAD_CAT_ID   = 66659
ELEMENT_SET_NO = 999
REV_AT_EPOCH   = 409
BSTAR          = .28624E-3
MEAN_MOTION_DOT = .2913E-4
MEAN_MOTION_DDOT = 0

CCSDS_OMM_VERS = 2.0
CREATION_DATE  = 
ORIGINATOR     = 

OBJECT_NAME    = K-HERO
OBJECT_ID      = 2025-274L
CENTER_NAME    = EARTH
REF_FRAME      = TEME
TIME_SYSTEM    = UTC
MEAN_ELEMENT_THEORY = SGP/SGP4

EPOCH          = 2025-12-24T01:34:07.982688
MEAN_MOTION    = 14.93019085
ECCENTRICITY   = .0012776
INCLINATION    = 97.7406
RA_OF_ASC_NODE = 285.1005
ARG_OF_PERICENTER = 238.7636
MEAN_ANOMALY   = 121.2332

EPHEMERIS_TYPE = 0
CLASSIFICATION_TYPE = U
NORAD_CAT_ID   = 66660
ELEMENT_SET_NO = 999
REV_AT_EPOCH   = 409
BSTAR          = .28901E-3
MEAN_MOTION_DOT = .2953E-4
MEAN_MOTION_DDOT = 0

CCSDS_OMM_VERS = 2.0
CREATION_DATE  = 
ORIGINATOR     = 

OBJECT_NAME    = SNUGLITE-III
OBJECT_ID      = 2025-274M
CENTER_NAME    = EARTH
REF_FRAME      = TEME
TIME_SYSTEM    = UTC
MEAN_ELEMENT_THEORY = SGP/SGP4

EPOCH          = 2025-12-24T01:30:20.935584
MEAN_MOTION    = 14.93151637
ECCENTRICITY   = .001342
INCLINATION    = 97.7403
RA_OF_ASC_NODE = 285.1030
ARG_OF_PERICENTER = 240.3091
MEAN_ANOMALY   = 119.6793

EPHEMERIS_TYPE = 0
CLASSIFICATION_TYPE = U
NORAD_CAT_ID   = 66661
ELEMENT_SET_NO = 999
REV_AT_EPOCH   = 409
BSTAR          = .24793E-3
MEAN_MOTION_DOT = .2534E-4
MEAN_MOTION_DDOT = 0

CCSDS_OMM_VERS = 2.0
CREATION_DATE  = 
ORIGINATOR     = 

OBJECT_NAME    = 2025-274N
OBJECT_ID      = 2025-274N
CENTER_NAME    = EARTH
REF_FRAME      = TEME
TIME_SYSTEM    = UTC
MEAN_ELEMENT_THEORY = SGP/SGP4

EPOCH          = 2025-12-24T01:28:51.112416
MEAN_MOTION    = 14.93207397
ECCENTRICITY   = .0013856
INCLINATION    = 97.7404
RA_OF_ASC_NODE = 285.1048
ARG_OF_PERICENTER = 240.0154
MEAN_ANOMALY   = 119.9691

EPHEMERIS_TYPE = 0
CLASSIFICATION_TYPE = U
NORAD_CAT_ID   = 66662
ELEMENT_SET_NO = 999
REV_AT_EPOCH   = 409
BSTAR          = .25902E-3
MEAN_MOTION_DOT = .2654E-4
MEAN_MOTION_DDOT = 0

